OBJECT_NAME,OBJECT_ID,EPOCH,MEAN_MOTION,ECCENTRICITY,INCLINATION,RA_OF_ASC_NODE,ARG_OF_PERICENTER,MEAN_ANOMALY,EPHEMERIS_TYPE,CLASSIFICATION_TYPE,NORAD_CAT_ID,ELEMENT_SET_NO,REV_AT_EPOCH,BSTAR,MEAN_MOTION_DOT,MEAN_MOTION_DDOT
STARLINK-37814,2026-131E,2026-06-28T23:01:30.876096,15.81778706,.00022904,97.2821,200.9275,238.7246,121.3799,0,U,69482,999,402,.35446766E-2,.776065E-2,0
STARLINK-37869,2026-131F,2026-06-28T13:53:45.164544,15.80864365,.00005482,97.2829,200.5269,172.5682,187.5595,0,U,69483,999,396,.11311019E-2,.222631E-2,0
STARLINK-37873,2026-131G,2026-06-28T22:00:01.999584,15.80781153,.00012315,97.2830,200.8864,86.2076,38.6192,0,U,69484,999,389,.33098832E-3,.6362E-3,0
STARLINK-37892,2026-131H,2026-06-28T22:00:01.999584,15.80781898,.00011894,97.2829,200.8889,79.1044,49.9974,0,U,69485,999,389,.36524796E-3,.70276E-3,0
STARLINK-37893,2026-131J,2026-06-28T13:50:31.785792,15.80894916,.00013429,97.2830,200.5305,112.3155,247.8256,0,U,69486,999,396,.89248916E-3,.174911E-2,0
STARLINK-37842,2026-131K,2026-06-28T13:49:26.998752,15.80884526,.00011718,97.2837,200.5308,108.9560,251.1836,0,U,69487,999,396,.64869833E-3,.126323E-2,0
STARLINK-37449,2026-131L,2026-06-28T13:48:21.583584,15.80878940,.00012085,97.2811,200.5310,108.1313,252.0087,0,U,69488,999,396,.46068035E-3,.89264E-3,0
STARLINK-37831,2026-131M,2026-06-28T13:47:17.024640,15.80889578,.00009458,97.2825,200.5328,122.6387,237.4973,0,U,69489,999,396,.8157991E-3,.159546E-2,0
STARLINK-37879,2026-131N,2026-06-28T13:46:11.585280,15.80791414,.00010212,97.2821,200.5337,118.9400,241.1971,0,U,69490,999,396,.15584705E-2,.308853E-2,0
STARLINK-37856,2026-131P,2026-06-28T16:00:03.000096,15.80804916,.00013289,97.2831,200.6144,69.8872,55.3535,0,U,69491,999,391,.23576689E-3,.4523E-3,0
STARLINK-37568,2026-131Q,2026-06-28T13:44:02.952096,15.80886377,.00027413,97.2820,200.5351,76.4792,283.6781,0,U,69492,999,396,.15423043E-2,.306914E-2,0
STARLINK-37855,2026-131R,2026-06-28T22:00:01.999584,15.80777670,.00013299,97.2830,200.8862,84.8403,39.1775,0,U,69493,999,395,.37590553E-3,.72334E-3,0
STARLINK-37854,2026-131S,2026-06-28T12:23:26.247264,15.80894634,.0000691,97.2822,200.4588,57.2703,302.8632,0,U,69494,999,395,.15134458E-2,.301073E-2,0
STARLINK-37789,2026-131T,2026-06-28T13:40:47.327808,15.80818779,.0000768,97.2834,200.5381,122.6824,237.4519,0,U,69495,999,270,.13250376E-2,.261458E-2,0
STARLINK-37839,2026-131U,2026-06-28T22:57:59.438880,15.80990923,.00013912,97.2825,200.9306,125.7854,234.3544,0,U,69496,999,276,.2222947E-2,.452083E-2,0
STARLINK-37798,2026-131V,2026-06-28T13:39:42.977088,15.81005349,.00008844,97.2840,200.5395,63.2315,296.9044,0,U,69497,999,270,.17795975E-2,.358205E-2,0
STARLINK-37853,2026-131W,2026-06-28T22:00:01.999584,15.80726597,.00012852,97.2832,200.9179,89.2222,108.2757,0,U,69498,999,395,.9366251E-3,.182319E-2,0
STARLINK-37849,2026-131X,2026-06-28T22:00:01.999584,15.80814008,.0001411,97.2829,200.9147,60.6607,132.6184,0,U,69499,999,397,-.56081716E-3,-.10626E-2,0
STARLINK-37835,2026-131Y,2026-06-28T13:37:33.247488,15.81020100,.00009344,97.2841,200.5416,73.4814,286.6557,0,U,69500,999,270,.19617495E-2,.396933E-2,0
STARLINK-37843,2026-131Z,2026-06-28T19:41:04.526592,15.80913372,.00013677,97.2829,200.8106,105.0853,255.0566,0,U,69501,999,274,.10820983E-2,.213221E-2,0
2026-132A,2026-132A,2026-06-28T18:28:21.471744,14.99065715,.0013309,97.6886,243.2921,226.4996,133.5121,0,U,69502,999,251,.10354949E-3,.1199E-4,0
2026-132B,2026-132B,2026-06-28T23:15:16.660512,14.99150815,.00132223,97.6917,243.4977,227.8820,132.1280,0,U,69503,999,254,.85206099E-4,.978E-5,0
BRO-22,2026-132C,2026-06-28T23:05:09.875040,14.99771956,.00149435,97.6849,243.4916,240.3184,119.6552,0,U,69504,999,254,.72972712E-4,.844E-5,0
2026-132D,2026-132D,2026-06-28T15:50:02.768928,15.05782284,.0020491,97.6871,243.2675,249.0379,110.8655,0,U,69505,999,250,.25648037E-3,.3669E-4,0
VERTECS,2026-132E,2026-06-28T03:34:50.946528,15.00923469,.00135283,97.6878,242.7259,265.3518,94.6160,0,U,69506,999,241,.19873209E-3,.2475E-4,0
2026-132F,2026-132F,2026-06-28T22:27:42.876288,15.03403357,.00154989,97.6848,243.5174,255.2750,104.6758,0,U,69507,999,253,.10856878E-3,.1417E-4,0
STARLINK-37536,2026-133A,2026-06-28T17:42:39.007872,15.80765474,.0001421,53.1587,264.2217,55.3831,304.7325,0,U,69508,999,259,.50109289E-4,.9153E-4,0
STARLINK-37341,2026-133B,2026-06-28T22:00:01.999584,15.79104883,.00010091,53.1590,263.2999,94.2716,216.9319,0,U,69509,999,385,-.15570829E-1,-.2437438E-1,0
STARLINK-36536,2026-133C,2026-06-28T22:00:01.999584,15.80862891,.00011065,53.1587,263.2666,101.2279,226.2069,0,U,69510,999,380,.82042995E-4,.15515E-3,0
STARLINK-37420,2026-133D,2026-06-28T22:00:01.999584,15.80869837,.00012272,53.1588,263.2249,93.5834,253.4492,0,U,69511,999,375,.382312E-5,.55E-6,0
